[{"line1":"1 40797U 93036BWA 22220.27848484  .00001822  00000-0  20889-3 0  9994","line2":"2 40797  73.9342  50.8075 0119143 252.6297 282.0818 14.81785056553731"},{"line1":"1 40798U 93036BWB 22221.22886309  .00004482  00000-0  10138-2 0  9999","line2":"2 40798  74.0391 184.7213 0009972 217.5241 142.5227 14.56458624413285"},{"line1":"1 40799U 93036BWC 22221.20827920  .00002024  00000-0  21855-3 0  9991","line2":"2 40799  73.9318  30.7610 0153696 199.6452 159.8766 14.80848058318117"},{"line1":"1 40800U 93036BWD 22220.60507122  .00023415  00000-0  40719-2 0  9992","line2":"2 40800  73.7884 189.1972 0160290  24.0790  97.8019 14.59924367548728"},{"line1":"1 40802U 93036BWF 22221.06967773  .00001127  00000-0  21549-3 0  9994","line2":"2 40802  74.0483 357.8064 0081323  51.7542 309.0907 14.63020469464676"},{"line1":"1 40803U 93036BWG 22220.59276379  .00000578  00000-0  16534-3 0  9994","line2":"2 40803  74.0150 186.6910 0035764 337.1157  22.8405 14.46959737410491"},{"line1":"1 40805U 93036BWJ 22220.45677778  .00037755  00000-0  29016-2 0  9994","line2":"2 40805  74.0368 220.3519 0021927 253.7033 258.5516 15.01362128470296"},{"line1":"1 40806U 93036BWK 22102.95753767  .00117195  00000-0  10492-1 0  9996","line2":"2 40806  74.0065 217.5540 0006720 259.0224 213.7453 14.95159652402788"},{"line1":"1 40807U 93036BWL 22217.62240025  .00001591  00000-0  60356-3 0  9994","line2":"2 40807  74.0253 197.3690 0101951 215.2342 144.2040 14.29068183595380"},{"line1":"1 40808U 93036BWM 22221.21624958  .00001500  00000-0  43565-3 0  9999","line2":"2 40808  74.0519 293.1769 0020673 284.1331 107.7527 14.45080581458636"},{"line1":"1 40810U 93036BWP 22220.96018983  .00001055  00000-0  29308-3 0  9992","line2":"2 40810  74.0381 217.6379 0023934 304.3414  55.5480 14.47568822439452"},{"line1":"1 40811U 93036BWQ 22083.19977123  .00005831  00000-0  93097-3 0  9997","line2":"2 40811  74.0219 275.3896 0040098 353.4532   6.6110 14.71568342845153"},{"line1":"1 40813U 07003AS  22219.81406080 -.00000121  00000-0 -89483-3 0  9990","line2":"2 40813  27.2084  50.8370 7661249 331.6182   2.3979  1.69893536 60335"},{"line1":"1 40814U 10042X   22220.90884639  .00000228  00000-0 -52245-2 0  9992","line2":"2 40814  25.8554 163.6804 7400608 272.1178  13.2068  1.90376880 53931"},{"line1":"1 40815U 10042Y   21350.90931702 -.00000144  00000-0  81700-3 0  9996","line2":"2 40815  25.7536 210.8894 7356539 205.5906  82.9245  1.90980144 55506"},{"line1":"1 40816U 10057AH  21288.04981149 -.00000182  00000-0  98273-3 0  9993","line2":"2 40816  20.1193 283.8443 7119730 260.8308  19.4575  2.29265843 60541"},{"line1":"1 40817U 10057AJ  22098.55484493 -.00000074  00000-0  48505-2 0  9992","line2":"2 40817  19.7785 315.3148 7152477 218.7143  57.7819  2.19793821 56621"},{"line1":"1 40818U 10057AK  22219.32582695  .00000028  00000-0 -83447-3 0  9990","line2":"2 40818  20.1584 227.4392 7099673 357.2540   0.3613  2.25695154 61132"},{"line1":"1 40819U 10057AL  22221.20614928  .00000192  00000-0  20280-2 0  9992","line2":"2 40819  20.0731 143.4267 7152819 144.2851 296.5142  2.29739619 64122"},{"line1":"1 40822U 10057AP  22220.24584759  .00000140  00000-0  61310-3 0  9990","line2":"2 40822  20.2698 198.1194 7210077  39.1462 355.3191  2.22288531 11122"},{"line1":"1 40823U 10057AQ  22220.18829386  .00000131  00000-0  91209-3 0  9992","line2":"2 40823  20.2905 205.4311 7176740  27.6861 356.7443  2.23410234 61498"},{"line1":"1 40825U 10057AS  18274.84107447 -.00000150  00000-0  64437-3 0  9993","line2":"2 40825  21.0786 342.6707 7209070 211.4513  71.1591  2.22614482 29776"},{"line1":"1 40826U 10057AT  17238.85214310 -.00000054  00000-0 -12266-3 0  9999","line2":"2 40826  20.6324 126.6158 7165570 312.3975   6.1420  2.24790460 20985"},{"line1":"1 40827U 10057AU  17232.08073512 -.00001120  00000-0 -22242-1 0  9994","line2":"2 40827  20.3066 127.6434 7130138 315.4376   5.8443  2.26370379 21094"},{"line1":"1 40829U 10057AW  22196.11409212  .00000006  00000-0  10715-2 0  9998","line2":"2 40829  21.0018  94.3017 7124012 219.7670  56.6092  2.34722385 63182"},{"line1":"1 40831U 10057AY  19037.24780720 -.00000157 +00000-0 -15381-2 0  9994","line2":"2 40831 020.5467 327.1757 7167938 250.4622 024.4781 02.20813655031648"},{"line1":"1 40832U 10057AZ  22221.09406616  .00000162  00000-0  84848-3 0  9995","line2":"2 40832  19.7197 172.9581 7194097  97.8074 341.7896  2.25871089 61320"},{"line1":"1 40834U 10057BB  22218.45793886 -.00000024  00000-0 -12468-2 0  9998","line2":"2 40834  20.1405 259.9577 7165143 302.1449   7.7752  2.19621551 59506"},{"line1":"1 40835U 10057BC  20255.95697972 -.00000164  00000-0 -79243-3 0  9992","line2":"2 40835  19.8379 119.7096 7193354 268.4098  15.8860  2.20211833 44357"},{"line1":"1 40838U 11077T   22215.21976226  .00000328  00000-0 -92806-3 0  9998","line2":"2 40838  26.2120 280.5076 7450813 273.4442  12.4004  1.93899110 52672"},{"line1":"1 40839U 11077U   22221.05104134  .00000061  00000-0  13678-2 0  9991","line2":"2 40839  25.5219 253.1037 7471321 338.8533   2.2075  1.94437135 60772"},{"line1":"1 40840U 11077V   22221.67745424 -.00000467  00000-0 -84278-2 0  9990","line2":"2 40840  28.2333  20.3908 7353675  77.5107 349.5116  1.92896167 60390"},{"line1":"1 40841U 11077W   22220.63186881 -.00000394  00000-0 -24106-2 0  9995","line2":"2 40841  27.7373  19.8676 7333771  89.8622 346.0296  1.93634380 60622"},{"line1":"1 40842U 11077X   22220.04976163  .00000121  00000-0  58423-2 0  9996","line2":"2 40842  22.6666  40.5371 7562481 166.9137 238.6631  1.76586901 55275"},{"line1":"1 40843U 11077Y   22220.37231978  .00000796  00000-0  81501-2 0  9992","line2":"2 40843  21.6460 241.3900 7438635  91.1623 346.1581  1.98801740 64812"},{"line1":"1 40844U 11077Z   22147.56056962 -.00000329  00000-0  52200-3 0  9998","line2":"2 40844  23.0834   0.4248 7551615 236.1298  29.1831  1.82109207  6427"},{"line1":"1 40845U 11077AA  22221.32526470  .00000515  00000-0  27606-2 0  9999","line2":"2 40845  21.5427 232.2727 7503181 106.8785 340.7596  1.94461847 64131"},{"line1":"1 40846U 11077AB  17347.26307043  .00000135  00000-0  18476-2 0  9992","line2":"2 40846  23.1620  77.8001 7602756 177.9318  13.2092  1.82303605 18970"},{"line1":"1 40847U 11077AC  22219.88693520  .00004704  00000-0  95825-2 0  9992","line2":"2 40847  24.9017 167.3393 7354473 128.0167 323.8082  2.13112301 57268"},{"line1":"1 40848U 11077AD  22221.57099054 -.00000741  00000-0 -24542-1 0  9990","line2":"2 40848  27.0569  16.9765 7393160 110.8084 337.7982  1.90713801 52219"},{"line1":"1 40849U 11077AE  22220.83150474 -.00000396  00000-0 -37781-2 0  9999","line2":"2 40849  26.4544   4.4539 7399223 146.0952 297.9893  1.90629374 65075"},{"line1":"1 40850U 11077AF  22210.56699896 -.00000266  00000-0  13100-2 0  9990","line2":"2 40850  25.3830 292.8347 7450634 281.2408  10.6409  1.92017335 51961"},{"line1":"1 40851U 11077AG  22221.57906423 -.00000327  00000-0 -63993-2 0  9995","line2":"2 40851  26.5152  31.0773 7362266  99.7435 342.7209  1.90185325 59433"},{"line1":"1 40852U 11077AH  22221.28867859 -.00000323  00000-0 -79768-2 0  9996","line2":"2 40852  27.4014  42.2250 7345764  60.9549 352.7357  1.90649361 59491"},{"line1":"1 40853U 12008T   21346.82165008 -.00000074  00000-0  59539-3 0  9993","line2":"2 40853  20.5608 249.4246 7072852 217.6833  61.3744  2.27863904 60287"},{"line1":"1 40854U 12008U   22220.04961302  .00000344  00000-0  43939-2 0  9996","line2":"2 40854  20.7967  64.5197 7091775 187.7347 148.4904  2.33836891 67252"},{"line1":"1 40855U 12008V   22221.15678084 -.00000066  00000-0  42588-2 0  9993","line2":"2 40855  22.2856 114.9861 7053981  55.2192  41.3754  2.31831093 65663"},{"line1":"1 40856U 12008W   22221.19945022  .00000070  00000-0  12165-2 0  9999","line2":"2 40856  21.6270  71.7582 7058062 154.4404 271.2356  2.35166124 66045"},{"line1":"1 40857U 12008X   22220.25730841  .00000197  00000-0  13022-1 0  9999","line2":"2 40857  19.6187 183.2812 7117164   0.4096 359.7731  2.21573194 62466"},{"line1":"1 40858U 12008Y   22219.20896785  .00000033  00000-0  11729-2 0  9995","line2":"2 40858  17.8605 190.5800 7273279  25.3209 357.1147  2.11637749 59300"},{"line1":"1 40859U 12008Z   21334.76868353  .00000044  00000-0  62459-3 0  9993","line2":"2 40859  21.6291 232.3611 7239620 220.2554  53.8528  2.20922212 56246"},{"line1":"1 40860U 12008AA  21233.31835069  .00000848  00000-0  23572-2 0  9996","line2":"2 40860  18.6720 248.1316 7316993 262.1410  16.9985  2.16942543 52992"},{"line1":"1 40861U 12008AB  22221.08012858  .00000092  00000-0  22765-2 0  9996","line2":"2 40861  20.4585 115.2134 7103649  99.6906 339.9497  2.28873621 64194"},{"line1":"1 40863U 12008AD  22221.25802288 -.00000006  00000-0  33721-3 0  9992","line2":"2 40863  20.9980 273.5017 7048312 172.4900 210.4146  2.20866950 61120"},{"line1":"1 40865U 12008AF  22221.37223062 -.00000394  00000-0 -79052-2 0  9991","line2":"2 40865  18.9026 296.4322 7280371 180.3352 178.6313  2.06230050  4662"},{"line1":"1 40867U 12008AH  22220.07450952  .00000484  00000-0  61323-2 0  9999","line2":"2 40867  21.5482 116.2199 7187834  72.1809 349.3472  2.24421364 76219"},{"line1":"1 40868U 12008AJ  22221.47521539 -.00000078  00000-0  00000-0 0  9998","line2":"2 40868  21.9194 330.2423 6798231  54.5862 351.2105  2.28104576963917"},{"line1":"1 40869U 12008AK  22218.37173770  .00000428  00000-0  71297-2 0  9990","line2":"2 40869  17.6673 276.3348 7282643 235.4692  33.8737  2.07758213 69927"},{"line1":"1 40870U 12008AL  22211.26413754 -.00000131  00000-0 -26282-3 0  9990","line2":"2 40870  17.3010 269.8958 7319867 255.6521  19.8444  2.04838756  6107"},{"line1":"1 40871U 12035E   22221.41156429 -.00000254  00000-0  00000-0 0  9994","line2":"2 40871   6.4107  72.8340 0021912 258.6396  40.5611  1.01520412 36909"},{"line1":"1 40872U 12035F   22097.88964356 -.00000148  00000-0  00000-0 0  9995","line2":"2 40872   6.0316  73.6926 0090882 190.5362 169.3333  1.02741370 32036"}]